OBJECT_NAME,OBJECT_ID,EPOCH,MEAN_MOTION,ECCENTRICITY,INCLINATION,RA_OF_ASC_NODE,ARG_OF_PERICENTER,MEAN_ANOMALY,EPHEMERIS_TYPE,CLASSIFICATION_TYPE,NORAD_CAT_ID,ELEMENT_SET_NO,REV_AT_EPOCH,BSTAR,MEAN_MOTION_DOT,MEAN_MOTION_DDOT
STARLINK-6311,2023-065AL,2026-05-10T23:36:09.356832,15.26740199,.0000995,43.0026,234.8055,273.2724,86.8013,0,U,56537,999,16596,-.40183E-5,-.367E-5,0
STARLINK-6314,2023-065AM,2026-05-10T22:10:20.824896,15.27570398,.00013844,43.0025,206.6355,277.1877,82.8817,0,U,56538,999,16628,.9678218E-5,.4E-7,0
STARLINK-6135,2023-065AN,2026-05-10T08:22:36.774336,15.26733415,.00012775,43.0045,238.6528,284.5185,75.5525,0,U,56539,999,16586,.57216057E-4,.1275E-4,0
STARLINK-6136,2023-065AP,2026-05-11T00:16:09.280992,15.27575276,.0002097,43.0061,235.0253,286.6511,73.4111,0,U,56540,999,16596,.28487E-4,.521E-5,0
STARLINK-6249,2023-065AQ,2026-05-10T23:12:19.590624,15.27551311,.0001147,43.0011,232.1329,271.1704,88.9017,0,U,56541,999,16599,.2015E-3,.5282E-4,0
STARLINK-6266,2023-065AR,2026-05-11T00:04:48.703008,15.27223761,.0001451,43.0035,234.9595,269.5804,90.4882,0,U,56542,999,16596,.20659E-2,.56404E-3,0
STARLINK-6226,2023-065AT,2026-05-10T23:38:00.335040,15.27573517,.0000338,43.0076,231.4202,266.4817,93.5996,0,U,56544,999,16600,.66978E-4,.1581E-4,0
STARLINK-6086,2023-065AU,2026-05-10T13:30:29.093472,15.27233405,.00017027,43.0022,234.2599,292.8102,67.2570,0,U,56545,999,16593,.20572235E-2,.56183E-3,0
STARLINK-6187,2023-065AV,2026-05-10T15:15:58.627008,15.27581701,.00014566,43.0016,233.9478,269.9872,90.0812,0,U,56546,999,16594,.45198908E-3,.12197E-3,0
STARLINK-6291,2023-065AW,2026-05-11T00:09:27.674784,15.27575103,.0002021,43.0032,231.5708,284.3344,75.7283,0,U,56547,999,16600,.67771E-5,-.76E-6,0
STARLINK-6244,2023-065AX,2026-05-10T23:14:09.640032,15.27578474,.0001558,43.0017,232.1386,278.4410,81.6265,0,U,56548,999,16599,-.22051E-4,-.869E-5,0
STARLINK-6263,2023-065AY,2026-05-10T13:15:56.043936,15.27580409,.00011926,43.0037,234.1823,252.9972,107.0749,0,U,56549,999,16593,.70946476E-4,.1691E-4,0
STARLINK-6255,2023-065AZ,2026-05-10T23:16:00.786720,15.27580357,.0001606,43.0027,232.1469,273.7307,86.3361,0,U,56550,999,16599,-.10775E-5,-.292E-5,0
STARLINK-6199,2023-065BA,2026-05-10T13:27:02.361600,15.27568694,.00013865,43.0018,234.2314,261.6550,98.4145,0,U,56551,999,16593,-.39229441E-4,-.1341E-4,0
STARLINK-5802,2023-065BB,2026-05-10T13:38:07.289952,15.27577422,.00012417,43.0020,234.2914,262.6443,97.4268,0,U,56552,999,16593,.11770721E-4,.62E-6,0
STARLINK-6074,2023-065BC,2026-05-10T23:58:21.448704,15.27576383,.0002167,43.0063,231.5076,283.8392,76.2219,0,U,56553,999,16600,.26566E-5,-.189E-5,0
STARLINK-6295,2023-065BD,2026-05-10T23:08:36.733056,15.27577835,.0001559,43.0017,232.1060,270.0159,90.0514,0,U,56554,999,16599,-.41566E-5,-.377E-5,0
STARLINK-6252,2023-065BE,2026-05-11T04:26:01.491072,15.27575077,.0001338,43.0016,230.3291,266.1095,93.9603,0,U,56555,999,16603,.12986E-4,.95E-6,0
STARLINK-5302,2023-065BF,2026-05-10T06:48:12.126816,15.27569809,.00022983,43.0042,235.6025,276.3528,83.7061,0,U,56556,999,16589,.5575192E-4,.1271E-4,0
STARLINK-6265,2023-065BG,2026-05-10T13:21:28.372896,15.27575604,.00017696,43.0042,234.2032,271.2476,88.8173,0,U,56557,999,16593,-.5412631E-5,-.411E-5,0
STARLINK-6286,2023-065BH,2026-05-10T16:30:55.001376,15.27578017,.00022352,43.0046,236.8815,281.5796,78.4805,0,U,56558,999,16591,.1833262E-4,.242E-5,0
BEIDOU-3 G4,2023-066A,2026-05-11T05:11:38.605056,1.00267079,.0003526,0.5361,322.6869,160.0477,324.1844,0,U,56564,999,1102,0,-.272E-5,0
STARLINK-30122,2023-067A,2026-05-10T20:19:58.831680,15.27578953,.00015642,43.0014,287.0223,272.4173,87.6500,0,U,56688,999,16519,-.16219751E-4,-.708E-5,0
STARLINK-30129,2023-067B,2026-05-11T03:30:15.846336,15.26744043,.0001263,43.0030,288.3850,274.8289,85.2418,0,U,56689,999,16513,.24644E-4,.401E-5,0
STARLINK-30124,2023-067C,2026-05-11T03:53:23.928864,15.27589471,.0002156,43.0069,288.5167,264.4446,95.6160,0,U,56690,999,16513,.7236E-4,.173E-4,0
STARLINK-30036,2023-067E,2026-05-11T03:40:26.707296,15.27570457,.000122,43.0049,288.4680,261.8583,98.2130,0,U,56692,999,16400,.11952E-3,.3027E-4,0
STARLINK-30067,2023-067F,2026-05-11T03:49:41.365920,15.27594707,.0001739,43.0036,288.5169,261.0429,99.0225,0,U,56693,999,16513,-.62484E-4,-.1982E-4,0
STARLINK-30126,2023-067G,2026-05-11T03:26:57.853824,15.27789835,.0002312,43.0069,281.5870,243.7693,116.2921,0,U,56694,999,16521,-.19333E-2,-.53425E-3,0
STARLINK-30121,2023-067H,2026-05-11T04:00:00.999936,15.27596665,.00019435,43.0027,288.5080,268.6361,109.6293,0,U,56695,999,562,-.7816497E-3,-.2172E-3,0
STARLINK-30130,2023-067K,2026-05-10T19:29:36.083616,15.27570893,.00015771,43.0053,279.9863,267.2461,92.8210,0,U,56697,999,16494,.34475162E-4,.686E-5,0
