STARLINK-6311           
1 56537U 23065AL  26130.98344163 -.00000367  00000+0 -40183-5 0  9990
2 56537  43.0026 234.8055 0000995 273.2724  86.8013 15.26740199165967
STARLINK-6314           
1 56538U 23065AM  26130.92385214  .00000004  00000+0  96782-5 0  9999
2 56538  43.0025 206.6355 0001384 277.1877  82.8817 15.27570398166289
STARLINK-6135           
1 56539U 23065AN  26130.34903674  .00001275  00000+0  57216-4 0  9991
2 56539  43.0045 238.6528 0001277 284.5185  75.5525 15.26733415165862
STARLINK-6136           
1 56540U 23065AP  26131.01121853  .00000521  00000+0  28487-4 0  9990
2 56540  43.0061 235.0253 0002097 286.6511  73.4111 15.27575276165964
STARLINK-6249           
1 56541U 23065AQ  26130.96689341  .00005282  00000+0  20150-3 0  9992
2 56541  43.0011 232.1329 0001147 271.1704  88.9017 15.27551311165993
STARLINK-6266           
1 56542U 23065AR  26131.00334147  .00056404  00000+0  20659-2 0  9995
2 56542  43.0035 234.9595 0001451 269.5804  90.4882 15.27223761165965
STARLINK-6226           
1 56544U 23065AT  26130.98472610  .00001581  00000+0  66978-4 0  9993
2 56544  43.0076 231.4202 0000338 266.4817  93.5996 15.27573517166005
STARLINK-6086           
1 56545U 23065AU  26130.56283673  .00056183  00000+0  20572-2 0  9993
2 56545  43.0022 234.2599 0001702 292.8102  67.2570 15.27233405165939
STARLINK-6187           
1 56546U 23065AV  26130.63609522  .00012197  00000+0  45199-3 0  9997
2 56546  43.0016 233.9478 0001456 269.9872  90.0812 15.27581701165949
STARLINK-6291           
1 56547U 23065AW  26131.00657031 -.00000076  00000+0  67771-5 0  9994
2 56547  43.0032 231.5708 0002021 284.3344  75.7283 15.27575103166001
STARLINK-6244           
1 56548U 23065AX  26130.96816713 -.00000869  00000+0 -22051-4 0  9995
2 56548  43.0017 232.1386 0001558 278.4410  81.6265 15.27578474165993
STARLINK-6263           
1 56549U 23065AY  26130.55273199  .00001691  00000+0  70946-4 0  9994
2 56549  43.0037 234.1823 0001192 252.9972 107.0749 15.27580409165933
STARLINK-6255           
1 56550U 23065AZ  26130.96945355 -.00000292  00000+0 -10775-5 0  9994
2 56550  43.0027 232.1469 0001606 273.7307  86.3361 15.27580357165998
STARLINK-6199           
1 56551U 23065BA  26130.56044400 -.00001341  00000+0 -39229-4 0  9992
2 56551  43.0018 234.2314 0001386 261.6550  98.4145 15.27568694165930
STARLINK-5802           
1 56552U 23065BB  26130.56813993  .00000062  00000+0  11771-4 0  9993
2 56552  43.0020 234.2914 0001241 262.6443  97.4268 15.27577422165936
STARLINK-6074           
1 56553U 23065BC  26130.99885936 -.00000189  00000+0  26566-5 0  9997
2 56553  43.0063 231.5076 0002167 283.8392  76.2219 15.27576383166004
STARLINK-6295           
1 56554U 23065BD  26130.96431404 -.00000377  00000+0 -41566-5 0  9999
2 56554  43.0017 232.1060 0001559 270.0159  90.0514 15.27577835165999
STARLINK-6252           
1 56555U 23065BE  26131.18473948  .00000095  00000+0  12986-4 0  9992
2 56555  43.0016 230.3291 0001338 266.1095  93.9603 15.27575077166038
STARLINK-5302           
1 56556U 23065BF  26130.28347369  .00001271  00000+0  55752-4 0  9995
2 56556  43.0042 235.6025 0002298 276.3528  83.7061 15.27569809165895
STARLINK-6265           
1 56557U 23065BG  26130.55657839 -.00000411  00000+0 -54126-5 0  9994
2 56557  43.0042 234.2032 0001769 271.2476  88.8173 15.27575604165932
STARLINK-6286           
1 56558U 23065BH  26130.68813659  .00000242  00000+0  18333-4 0  9992
2 56558  43.0046 236.8815 0002235 281.5796  78.4805 15.27578017165918
BEIDOU-3 G4             
1 56564U 23066A   26131.21641904 -.00000272  00000+0  00000+0 0  9993
2 56564   0.5361 322.6869 0003526 160.0477 324.1844  1.00267079 11022
STARLINK-30122          
1 56688U 23067A   26130.84720870 -.00000708  00000+0 -16220-4 0  9990
2 56688  43.0014 287.0223 0001564 272.4173  87.6500 15.27578953165193
STARLINK-30129          
1 56689U 23067B   26131.14601674  .00000401  00000+0  24644-4 0  9992
2 56689  43.0030 288.3850 0001263 274.8289  85.2418 15.26744043165132
STARLINK-30124          
1 56690U 23067C   26131.16208251  .00001730  00000+0  72360-4 0  9994
2 56690  43.0069 288.5167 0002156 264.4446  95.6160 15.27589471165133
STARLINK-30036          
1 56692U 23067E   26131.15308689  .00003027  00000+0  11952-3 0  9991
2 56692  43.0049 288.4680 0001220 261.8583  98.2130 15.27570457164001
STARLINK-30067          
1 56693U 23067F   26131.15950655 -.00001982  00000+0 -62484-4 0  9995
2 56693  43.0036 288.5169 0001739 261.0429  99.0225 15.27594707165130
STARLINK-30126          
1 56694U 23067G   26131.14372516 -.00053425  00000+0 -19333-2 0  9991
2 56694  43.0069 281.5870 0002312 243.7693 116.2921 15.27789835165219
STARLINK-30121          
1 56695U 23067H   26131.16667824 -.00021720  00000+0 -78165-3 0  9995
2 56695  43.0027 288.5080 0001943 268.6361 109.6293 15.27596665  5624
STARLINK-30130          
1 56697U 23067K   26130.81222319  .00000686  00000+0  34475-4 0  9997
2 56697  43.0053 279.9863 0001577 267.2461  92.8210 15.27570893164945
